[
    {
        "Altitude(m)": 571782.7241652064,
        "Argument of Periapsis(deg)": 0.006622991110713501,
        "Eccentricity": 0.0,
        "Inclination(deg)": 53.0,
        "Latitude(deg)": -52.990485859860144,
        "Longitude(deg)": 25.402987961975807,
        "Mean Anomaly(deg)": -86.27200713242242,
        "RAAN(deg)": 209.99014336852804,
        "Satellite Name": "Starlink Shell 1 940",
        "Satellite Number": 940,
        "Semi-Major Axis(m)": 6931778.249405717,
        "Time(s)": 190
    },
    {
        "Altitude(m)": 571760.2410220796,
        "Argument of Periapsis(deg)": 0.0069715695902247375,
        "Eccentricity": 0.0,
        "Inclination(deg)": 53.0,
        "Latitude(deg)": -52.93234148056605,
        "Longitude(deg)": 26.391421360875455,
        "Mean Anomaly(deg)": -85.64517592886565,
        "RAAN(deg)": 209.98962459845055,
        "Satellite Name": "Starlink Shell 1 940",
        "Satellite Number": 940,
        "Semi-Major Axis(m)": 6931778.249405717,
        "Time(s)": 200
    },
    {
        "Altitude(m)": 571734.3103630611,
        "Argument of Periapsis(deg)": 0.007320148069735974,
        "Eccentricity": 0.0,
        "Inclination(deg)": 53.0,
        "Latitude(deg)": -52.86530305690159,
        "Longitude(deg)": 27.37689352280404,
        "Mean Anomaly(deg)": -85.018344725309,
        "RAAN(deg)": 209.98910582837308,
        "Satellite Name": "Starlink Shell 1 940",
        "Satellite Number": 940,
        "Semi-Major Axis(m)": 6931778.249405717,
        "Time(s)": 210
    },
    {
        "Altitude(m)": 571704.942515418,
        "Argument of Periapsis(deg)": 0.007668726549247212,
        "Eccentricity": 0.0,
        "Inclination(deg)": 53.0,
        "Latitude(deg)": -52.78941901910758,
        "Longitude(deg)": 28.35900324353976,
        "Mean Anomaly(deg)": -84.39151352175223,
        "RAAN(deg)": 209.98858705829562,
        "Satellite Name": "Starlink Shell 1 940",
        "Satellite Number": 940,
        "Semi-Major Axis(m)": 6931778.249405717,
        "Time(s)": 220
    },
    {
        "Altitude(m)": 571672.1491771209,
        "Argument of Periapsis(deg)": 0.00801730502875845,
        "Eccentricity": 0.0,
        "Inclination(deg)": 53.0,
        "Latitude(deg)": -52.7047437705079,
        "Longitude(deg)": 29.33735892996104,
        "Mean Anomaly(deg)": -83.76468231819555,
        "RAAN(deg)": 209.98806828821813,
        "Satellite Name": "Starlink Shell 1 940",
        "Satellite Number": 940,
        "Semi-Major Axis(m)": 6931778.249405717,
        "Time(s)": 230
    },
    {
        "Altitude(m)": 571635.9434118235,
        "Argument of Periapsis(deg)": 0.008365883508269684,
        "Eccentricity": 0.0,
        "Inclination(deg)": 53.0,
        "Latitude(deg)": -52.61133749937822,
        "Longitude(deg)": 30.31158009254779,
        "Mean Anomaly(deg)": -83.1378511146388,
        "RAAN(deg)": 209.98754951814067,
        "Satellite Name": "Starlink Shell 1 940",
        "Satellite Number": 940,
        "Semi-Major Axis(m)": 6931778.249405717,
        "Time(s)": 240
    },
    {
        "Altitude(m)": 571596.3396431741,
        "Argument of Periapsis(deg)": 0.008714461987780921,
        "Eccentricity": 0.0,
        "Inclination(deg)": 53.0,
        "Latitude(deg)": -52.50926597385564,
        "Longitude(deg)": 31.28129725348294,
        "Mean Anomaly(deg)": -82.51101991108207,
        "RAAN(deg)": 209.98703074806323,
        "Satellite Name": "Starlink Shell 1 940",
        "Satellite Number": 940,
        "Semi-Major Axis(m)": 6931778.249405717,
        "Time(s)": 250
    },
    {
        "Altitude(m)": 571553.3536486129,
        "Argument of Periapsis(deg)": 0.009063040467292158,
        "Eccentricity": 0.0,
        "Inclination(deg)": 53.0,
        "Latitude(deg)": -52.39860032147211,
        "Longitude(deg)": 32.246153291516734,
        "Mean Anomaly(deg)": -81.8841887075254,
        "RAAN(deg)": 209.98651197798574,
        "Satellite Name": "Starlink Shell 1 940",
        "Satellite Number": 940,
        "Semi-Major Axis(m)": 6931778.249405717,
        "Time(s)": 260
    },
    {
        "Altitude(m)": 571507.0025525192,
        "Argument of Periapsis(deg)": 0.009411618946803396,
        "Eccentricity": 0.0,
        "Inclination(deg)": 53.0,
        "Latitude(deg)": -52.2794167949673,
        "Longitude(deg)": 33.20580470714406,
        "Mean Anomaly(deg)": -81.25735750396872,
        "RAAN(deg)": 209.98599320790828,
        "Satellite Name": "Starlink Shell 1 940",
        "Satellite Number": 940,
        "Semi-Major Axis(m)": 6931778.249405717,
        "Time(s)": 270
    },
    {
        "Altitude(m)": 571457.3048188346,
        "Argument of Periapsis(deg)": 0.009760197426314633,
        "Eccentricity": 0.0,
        "Inclination(deg)": 53.0,
        "Latitude(deg)": -52.151796526181464,
        "Longitude(deg)": 34.15992129185001,
        "Mean Anomaly(deg)": -80.63052630041197,
        "RAAN(deg)": 209.9854744378308,
        "Satellite Name": "Starlink Shell 1 940",
        "Satellite Number": 940,
        "Semi-Major Axis(m)": 6931778.249405717,
        "Time(s)": 280
    },
    {
        "Altitude(m)": 571404.2802430337,
        "Argument of Periapsis(deg)": 0.01010877590582587,
        "Eccentricity": 0.0,
        "Inclination(deg)": 53.0,
        "Latitude(deg)": -52.0158252696061,
        "Longitude(deg)": 35.10818722677765,
        "Mean Anomaly(deg)": -80.00369509685521,
        "RAAN(deg)": 209.98495566775327,
        "Satellite Name": "Starlink Shell 1 940",
        "Satellite Number": 940,
        "Semi-Major Axis(m)": 6931778.249405717,
        "Time(s)": 290
    },
    {
        "Altitude(m)": 571347.9499435743,
        "Argument of Periapsis(deg)": 0.010457354385337106,
        "Eccentricity": 0.0,
        "Inclination(deg)": 53.0,
        "Latitude(deg)": -51.87159313759128,
        "Longitude(deg)": 36.05030209511012,
        "Mean Anomaly(deg)": -79.37686389329856,
        "RAAN(deg)": 209.98443689767583,
        "Satellite Name": "Starlink Shell 1 940",
        "Satellite Number": 940,
        "Semi-Major Axis(m)": 6931778.249405717,
        "Time(s)": 300
    },
    {
        "Altitude(m)": 571288.3363527589,
        "Argument of Periapsis(deg)": 0.010805932864848343,
        "Eccentricity": 0.0,
        "Inclination(deg)": 53.0,
        "Latitude(deg)": -51.71919432882012,
        "Longitude(deg)": 36.98598029656173,
        "Mean Anomaly(deg)": -78.75003268974181,
        "RAAN(deg)": 209.98391812759837,
        "Satellite Name": "Starlink Shell 1 940",
        "Satellite Number": 940,
        "Semi-Major Axis(m)": 6931778.249405717,
        "Time(s)": 310
    },
    {
        "Altitude(m)": 571225.4632069985,
        "Argument of Periapsis(deg)": 0.01115451134435958,
        "Eccentricity": 0.0,
        "Inclination(deg)": 53.0,
        "Latitude(deg)": -51.558726851849464,
        "Longitude(deg)": 37.91495188991965,
        "Mean Anomaly(deg)": -78.12320148618512,
        "RAAN(deg)": 209.98339935752088,
        "Satellite Name": "Starlink Shell 1 940",
        "Satellite Number": 940,
        "Semi-Major Axis(m)": 6931778.249405717,
        "Time(s)": 320
    },
    {
        "Altitude(m)": 571159.3555365413,
        "Argument of Periapsis(deg)": 0.011503089823870818,
        "Eccentricity": 0.0,
        "Inclination(deg)": 53.0,
        "Latitude(deg)": -51.39029224540928,
        "Longitude(deg)": 38.83696335234259,
        "Mean Anomaly(deg)": -77.49637028262838,
        "RAAN(deg)": 209.98288058744342,
        "Satellite Name": "Starlink Shell 1 940",
        "Satellite Number": 940,
        "Semi-Major Axis(m)": 6931778.249405717,
        "Time(s)": 330
    },
    {
        "Altitude(m)": 571090.0396546138,
        "Argument of Periapsis(deg)": 0.011851668303382053,
        "Eccentricity": 0.0,
        "Inclination(deg)": 53.0,
        "Latitude(deg)": -51.21399529710604,
        "Longitude(deg)": 39.75177674473213,
        "Mean Anomaly(deg)": -76.86953907907163,
        "RAAN(deg)": 209.98236181736596,
        "Satellite Name": "Starlink Shell 1 940",
        "Satellite Number": 940,
        "Semi-Major Axis(m)": 6931778.249405717,
        "Time(s)": 340
    },
    {
        "Altitude(m)": 571017.5431460162,
        "Argument of Periapsis(deg)": 0.012200246782893292,
        "Eccentricity": 0.0,
        "Inclination(deg)": 53.0,
        "Latitude(deg)": -51.02994376209413,
        "Longitude(deg)": 40.6591703117445,
        "Mean Anomaly(deg)": -76.24270787551497,
        "RAAN(deg)": 209.98184304728846,
        "Satellite Name": "Starlink Shell 1 940",
        "Satellite Number": 940,
        "Semi-Major Axis(m)": 6931778.249405717,
        "Time(s)": 350
    },
    {
        "Altitude(m)": 570941.8948551515,
        "Argument of Periapsis(deg)": 0.012548825262404526,
        "Eccentricity": 0.0,
        "Inclination(deg)": 53.0,
        "Latitude(deg)": -50.83824808320358,
        "Longitude(deg)": 41.558939006947455,
        "Mean Anomaly(deg)": -75.61587667195822,
        "RAAN(deg)": 209.981324277211,
        "Satellite Name": "Starlink Shell 1 940",
        "Satellite Number": 940,
        "Semi-Major Axis(m)": 6931778.249405717,
        "Time(s)": 360
    },
    {
        "Altitude(m)": 570863.1248735124,
        "Argument of Periapsis(deg)": 0.012897403741915765,
        "Eccentricity": 0.0,
        "Inclination(deg)": 53.0,
        "Latitude(deg)": -50.63902111391686,
        "Longitude(deg)": 42.45089343410233,
        "Mean Anomaly(deg)": -74.98904546840154,
        "RAAN(deg)": 209.9808055071335,
        "Satellite Name": "Starlink Shell 1 940",
        "Satellite Number": 940,
        "Semi-Major Axis(m)": 6931778.249405717,
        "Time(s)": 370
    }
]